[
    {
        "Altitude(m)": 559025.452223402,
        "Argument of Periapsis(deg)": 0.033114955553567506,
        "Eccentricity": 0.0,
        "Inclination(deg)": 53.0,
        "Latitude(deg)": 49.312122847691064,
        "Longitude(deg)": 15.359380064105967,
        "Mean Anomaly(deg)": 108.63986433788794,
        "RAAN(deg)": -0.04928315735991589,
        "Satellite Name": "Starlink Shell 1 3",
        "Satellite Number": 3,
        "Semi-Major Axis(m)": 6931778.249405717,
        "Time(s)": 950
    },
    {
        "Altitude(m)": 558968.4981117855,
        "Argument of Periapsis(deg)": 0.03346353403307874,
        "Eccentricity": 0.0,
        "Inclination(deg)": 53.0,
        "Latitude(deg)": 49.06319881532213,
        "Longitude(deg)": 16.196204002204986,
        "Mean Anomaly(deg)": 109.26669554144466,
        "RAAN(deg)": -0.049801927437388684,
        "Satellite Name": "Starlink Shell 1 3",
        "Satellite Number": 3,
        "Semi-Major Axis(m)": 6931778.249405717,
        "Time(s)": 960
    },
    {
        "Altitude(m)": 558910.0399713765,
        "Argument of Periapsis(deg)": 0.03381211251258998,
        "Eccentricity": 0.0,
        "Inclination(deg)": 53.0,
        "Latitude(deg)": 48.80765236488326,
        "Longitude(deg)": 17.024192261539177,
        "Mean Anomaly(deg)": 109.89352674500137,
        "RAAN(deg)": -0.050320697514861484,
        "Satellite Name": "Starlink Shell 1 3",
        "Satellite Number": 3,
        "Semi-Major Axis(m)": 6931778.249405717,
        "Time(s)": 970
    },
    {
        "Altitude(m)": 558850.1135819491,
        "Argument of Periapsis(deg)": 0.034160690992101214,
        "Eccentricity": 0.0,
        "Inclination(deg)": 53.0,
        "Latitude(deg)": 48.545608140801114,
        "Longitude(deg)": 17.843287607707502,
        "Mean Anomaly(deg)": 110.52035794855807,
        "RAAN(deg)": -0.05083946759233428,
        "Satellite Name": "Starlink Shell 1 3",
        "Satellite Number": 3,
        "Semi-Major Axis(m)": 6931778.249405717,
        "Time(s)": 980
    },
    {
        "Altitude(m)": 558788.7556696824,
        "Argument of Periapsis(deg)": 0.034509269471612446,
        "Eccentricity": 0.0,
        "Inclination(deg)": 53.0,
        "Latitude(deg)": 48.27719082698113,
        "Longitude(deg)": 18.653446317133703,
        "Mean Anomaly(deg)": 111.1471891521148,
        "RAAN(deg)": -0.05135823766980708,
        "Satellite Name": "Starlink Shell 1 3",
        "Satellite Number": 3,
        "Semi-Major Axis(m)": 6931778.249405717,
        "Time(s)": 990
    }
]